HST                     
1 20580U 90037B   26152.43012393  .00005871  00000+0  18536-3 0  9991
2 20580  28.4714 188.2534 0001612 343.7808  16.2737 15.30575228786158
POLAR                   
1 23802U 96013A   26151.86217286  .00000098  00000+0  00000+0 0  9994
2 23802  79.8365 227.2440 6454182 209.6429  88.8163  1.29846076144644
SWAS                    
1 25560U 98071A   26152.51023075  .00004743  00000+0  30145-3 0  9995
2 25560  69.8969 267.9429 0008523 274.7301  85.2890 15.09504097494906
CXO                     
1 25867U 99040B   26153.50844987  .00000595  00000+0  00000+0 0  9999
2 25867  55.9180 117.0902 7859055 310.3424   0.0689  0.37796441 17264
XMM-NEWTON              
1 25989U 99066A   26153.38988298  .00000054  00000+0  00000+0 0  9992
2 25989  64.5660 283.1750 4678287  65.1499   0.1702  0.50127783 22933
TERRA                   
1 25994U 99068A   26152.48093687  .00000515  00000+0  11377-3 0  9994
2 25994  97.9464 202.6491 0000810 287.6678 180.6757 14.61089564407310
CLUSTER II-FM7 (SAMBA)  
1 26410U 00041A   26154.75332489  .00009029  00000+0  00000+0 0  9995
2 26410 149.8879  48.1959 9037482 265.2451   0.0998  0.44851571 20244
CLUSTER II-FM8 (TANGO)  
1 26464U 00045B   26150.42970564  .00004404  00000+0  00000+0 0  9992
2 26464 150.1271  48.5941 9036059 265.4393   3.5087  0.44418197 20234
ODIN                    
1 26702U 01007A   26152.06521637  .00151643  00000+0  12130-2 0  9999
2 26702  97.3868 192.0322 0005748 163.7697 196.3751 15.70598536386864
TIMED                   
1 26998U 01055B   26152.48604953  .00001711  00000+0  15901-3 0  9998
2 26998  74.0681 266.6309 0000215  28.5980 331.5216 14.95252417328479
CORIOLIS                
1 27640U 03001A   26152.55392079  .00000127  00000+0  80387-4 0  9998
2 27640  98.7126 159.6774 0012818 257.0349 102.9396 14.19940322212003
SORCE                   
1 27651U 03004A   26151.93406260  .00003537  00000+0  26402-3 0  9997
2 27651  39.9924 354.4015 0018718 293.7812  66.1020 15.03616487269450
MOST                    
1 27843U 03031D   26152.51279837  .00000089  00000+0  60871-4 0  9991
2 27843  98.7043 160.4574 0008833 301.4482  58.5831 14.21319060188484
SCISAT 1                
1 27858U 03036A   26151.54572146  .00000695  00000+0  93435-4 0  9998
2 27858  73.9295 204.4066 0008715 272.4539  87.5639 14.81429143228986
SWIFT                   
1 28485U 04047A   26151.76835454  .00063707  00000+0  56852-3 0  9990
2 28485  20.5544 311.3972 0003289  74.7681 285.3128 15.66645040184289
HINODE (SOLAR-B)        
1 29479U 06041A   26152.51494270  .00000956  00000+0  17274-3 0  9993
2 29479  98.0550 168.8986 0016887 342.6089  17.4536 14.68598560 52575
SHIJIAN-6 02A (SJ-6 02A)
1 29505U 06046A   26152.58912208  .00010760  00000+0  55144-3 0  9993
2 29505  97.6362 193.5404 0003219 164.7777 195.3553 15.16751974 69907
SHIJIAN-6 02B (SJ-6 02B)
1 29506U 06046B   26152.55076473  .00002263  00000+0  18013-3 0  9999
2 29506  97.7156 181.7057 0013945 106.9521 253.3233 15.01334296 68395
FGRST (GLAST)           
1 33053U 08029A   26152.51342751  .00004058  00000+0  14981-3 0  9999
2 33053  25.5836 313.3067 0008499 138.7426 221.3755 15.23855463993445
SDO                     
1 36395U 10005A   26151.33841170 -.00000080  00000+0  00000+0 0  9991
2 36395  34.6180  86.5968 0001375  41.2249 140.9040  1.00271669 59891
CRYOSAT 2               
1 36508U 10013A   26152.50553683  .00000190  00000+0  46371-4 0  9992
2 36508  92.0343 273.4912 0002303  85.5421 274.6049 14.51904389855808
X-SAT                   
1 37389U 11015C   26152.56971247  .00000186  00000+0  96567-4 0  9996
2 37389  98.3497 130.3380 0014867  33.0862 327.1245 14.25201177785451
GCOM-W1 (SHIZUKU)       
1 38337U 12025A   26152.45528012  .00000563  00000+0  13495-3 0  9995
2 38337  98.2019  93.2498 0001850  87.1864  28.6200 14.57108141746746
NUSTAR                  
1 38358U 12031A   26152.58335648  .00019496  00000+0  11514-2 0  9994
2 38358   6.0254 151.1642 0009360 239.3512 186.4524 15.08636180  1301
NEOSSAT                 
1 39089U 13009D   26152.11190486  .00000172  00000+0  74374-4 0  9996
2 39089  98.4173 332.5274 0009912 297.5986  62.4193 14.35820450694439
BRITE-AUSTRIA           
1 39091U 13009F   26151.97921872  .00000207  00000+0  85216-4 0  9999
2 39091  98.3990 331.8168 0009022 291.3069  68.7154 14.36535072694720
IRIS                    
1 39197U 13033A   26152.54161663  .00001326  00000+0  15792-3 0  9995
2 39197  97.9336 351.8675 0024774  13.6485 346.5395 14.85850810698057
HISAKI (SPRINT-A)       
1 39253U 13049A   26152.44124326  .00000151  00000+0  11299-3 0  9992
2 39253  29.7215 300.0649 0136907 249.2755 109.3095 13.55542806629285
CASSIOPE                
1 39265U 13055A   26152.34365422  .00039390 -60010-6  43885-3 0  9993
2 39265  80.9155  85.9375 0297668 115.5450 247.6879 15.23784970665254
STSAT-3                 
1 39422U 13066G   26152.59774245  .00004931  00000+0  37396-3 0  9992
2 39422  97.6188 122.7399 0010559  87.5097 272.7336 15.02650127681868
SWARM B                 
1 39451U 13067A   26152.55220429  .00003851  00000+0  13789-3 0  9991
2 39451  87.7435 347.0680 0003379  94.8859 265.2776 15.28449290680857
SWARM A                 
1 39452U 13067B   26152.47464949  .00012107  00000+0  21079-3 0  9995
2 39452  87.3340  62.0763 0003036  89.2059 270.9550 15.50614688703810
SWARM C                 
1 39453U 13067C   26152.47454638  .00012002  00000+0  20892-3 0  9996
2 39453  87.3340  60.6578 0003004  89.0515 271.1090 15.50617019703777
BRITE-CA1 (TORONTO)     
1 40020U 14033L   26152.27459777  .00000791  00000+0  12651-3 0  9995
2 40020  97.9719 281.4978 0077847 328.7286  30.9303 14.72652747639874
OCO 2                   
1 40059U 14035A   26152.49875085  .00000526  00000+0  12676-3 0  9990
2 40059  98.2015  94.0314 0001463  87.7548 272.3818 14.57096918633765
BRITE-PL2 (HEWELIUSZ)   
1 40119U 14049B   26152.30509199  .00002304  00000+0  21833-3 0  9993
2 40119  97.9081 264.1848 0014609 157.8708 202.3146 14.94526658639073
MMS 1                   
1 40482U 15011A   26152.58335648 -.00000426  00000+0  00000+0 0  9995
2 40482  71.9486 349.0169 8337019 167.0241 146.9956  0.28373691  1368
MMS 2                   
1 40483U 15011B   26152.58335648 -.00000426  00000+0  00000+0 0  9996
2 40483  71.9488 349.0191 8337796 167.0298 146.9835  0.28373714  1362
MMS 3                   
1 40484U 15011C   26152.58335648 -.00000426  00000+0  00000+0 0  9997
2 40484  71.9518 349.0236 8336995 167.0243 146.9808  0.28373669  1366
MMS 4                   
1 40485U 15011D   26152.58335648 -.00000426  00000+0  00000+0 0  9998
2 40485  71.9482 349.0193 8336585 167.0320 146.9692  0.28373658  1369
ASTROSAT                
1 40930U 15052A   26152.01297388  .00001894  00000+0  14876-3 0  9993
2 40930   5.9971 271.7848 0007786 167.6368 192.3951 14.82476877577420
DAMPE                   
1 41173U 15078A   26152.61060302  .00001786  00000+0  62598-4 0  9996
2 41173  97.4552 158.0015 0013314 125.8600 234.3879 15.30743068582169
PISAT                   
1 41784U 16059B   26152.47728249  .00001092  00000+0  19351-3 0  9997
2 41784  97.8177 153.6056 0027516 254.9859 104.8302 14.68953441517437
HXMT (HUIYAN)           
1 42758U 17034A   26152.60996046  .00005826  00000+0  28675-3 0  9998
2 42758  43.0149 269.7722 0030467  44.3754 315.9529 15.18342295495294
FLYING LAPTOP           
1 42831U 17042G   26152.58707381  .00003904  00000+0  30895-3 0  9990
2 42831  97.4618 308.7276 0018749 173.2740 186.8740 15.01034592484113
ZHANGHENG 1-01 (CSES-1) 
1 43194U 18015C   26152.61007844  .00007755  00000+0  35568-3 0  9995
2 43194  97.6856 317.9618 0017530 324.5332  35.4736 15.20596597462275
SALSAT                  
1 46495U 20068K   26152.51143327  .00008227  00000+0  28976-3 0  9999
2 46495  97.8846 154.6250 0009671   8.8723 351.2685 15.29551793312964
IXPE                    
1 49954U 21121A   26152.58335648  .00011484  00000+0  62837-3 0  9992
2 49954   0.2310  75.1368 0007179 207.1133 359.6104 15.10098543  5784
SMILE                   
1 69123U 26109A   26144.65318427 -.00001976  00000+0 -42379-3 0  9994
2 69123  70.0007 229.2745 0009123 259.5159 100.4951 14.57062785   802
